{"type": "FeatureCollection", "features": [ {"type": "Feature", "properties": {"norad_id": 32289, "name": "YAOGAN-3", "group": "resource", "lat": -13.897468007788243, "lon": -162.48523680807264, "alt_km": 603.4303396246532, "timestamp": "2025-12-18T21:31:50.638712+00:00", "meta": {"OBJECT_NAME": "YAOGAN-3", "OBJECT_ID": "2007-055A", "EPOCH": "2025-12-18T06:09:23.497344", "MEAN_MOTION": 14.89886245, "ECCENTRICITY": 0.00013223, "INCLINATION": 97.8366, "RA_OF_ASC_NODE": 18.8328, "ARG_OF_PERICENTER": 73.5619, "MEAN_ANOMALY": 286.5744, "EPHEMERIS_TYPE": 0, "CLASSIFICATION_TYPE": "U", "NORAD_CAT_ID": 32289, "ELEMENT_SET_NO": 999, "REV_AT_EPOCH": 97891, "BSTAR": 0.00020419107, "MEAN_MOTION_DOT": 1.908e-05, "MEAN_MOTION_DDOT": 0}, "tle": {"line1": "1 32289U 07055A   25352.25652196  .00001908  00000+0  20419-3 0  9990", "line2": "2 32289  97.8366  18.8328 0001322  73.5619 286.5744 14.89886245978919"}}, "geometry": {"type": "Point", "coordinates": [-162.48523680807264, -13.897468007788243]}}, {"type": "Feature", "properties": {"norad_id": 32376, "name": "COSMO-SKYMED 2", "group": "resource", "lat": -57.15817212800262, "lon": -173.48159318340723, "alt_km": 630.356677045288, "timestamp": "2025-12-18T21:31:50.638723+00:00", "meta": {"OBJECT_NAME": "COSMO-SKYMED 2", "OBJECT_ID": "2007-059A", "EPOCH": "2025-12-18T07:12:35.172576", "MEAN_MOTION": 14.82149393, "ECCENTRICITY": 0.00013538, "INCLINATION": 97.8803, "RA_OF_ASC_NODE": 173.5405, "ARG_OF_PERICENTER": 82.9377, "MEAN_ANOMALY": 277.199, "EPHEMERIS_TYPE": 0, "CLASSIFICATION_TYPE": "U", "NORAD_CAT_ID": 32376, "ELEMENT_SET_NO": 999, "REV_AT_EPOCH": 97520, "BSTAR": 6.4033649e-05, "MEAN_MOTION_DOT": 4.58e-06, "MEAN_MOTION_DDOT": 0}, "tle": {"line1": "1 32376U 07059A   25352.30040709  .00000458  00000+0  64034-4 0  9999", "line2": "2 32376  97.8803 173.5405 0001353  82.9377 277.1990 14.82149393975203"}}, "geometry": {"type": "Point", "coordinates": [-173.48159318340723, -57.15817212800262]}}, {"type": "Feature", "properties": {"norad_id": 32382, "name": "RADARSAT-2", "group": "resource", "lat": 3.33751451085564, "lon": 177.9025867371035, "alt_km": 794.3272242837556, "timestamp": "2025-12-18T21:31:50.638734+00:00", "meta": {"OBJECT_NAME": "RADARSAT-2", "OBJECT_ID": "2007-061A", "EPOCH": "2025-12-18T07:16:25.087296", "MEAN_MOTION": 14.29982609, "ECCENTRICITY": 0.00010892, "INCLINATION": 98.5794, "RA_OF_ASC_NODE": 356.8128, "ARG_OF_PERICENTER": 84.4692, "MEAN_ANOMALY": 275.6615, "EPHEMERIS_TYPE": 0, "CLASSIFICATION_TYPE": "U", "NORAD_CAT_ID": 32382, "ELEMENT_SET_NO": 999, "REV_AT_EPOCH": 94010, "BSTAR": -4.9724537e-05, "MEAN_MOTION_DOT": -1.72e-06, "MEAN_MOTION_DDOT": 0}, "tle": {"line1": "1 32382U 07061A   25352.30306814 -.00000172  00000+0 -49725-4 0  9996", "line2": "2 32382  98.5794 356.8128 0001089  84.4692 275.6615 14.29982609940102"}}, "geometry": {"type": "Point", "coordinates": [177.9025867371035, 3.33751451085564]}}, {"type": "Feature", "properties": {"norad_id": 32783, "name": "CARTOSAT-2A", "group": "resource", "lat": 10.497914836271411, "lon": 41.074466239360106, "alt_km": 626.9813803423385, "timestamp": "2025-12-18T21:31:50.638748+00:00", "meta": {"OBJECT_NAME": "CARTOSAT-2A", "OBJECT_ID": "2008-021A", "EPOCH": "2025-12-18T06:52:08.993280", "MEAN_MOTION": 14.78945684, "ECCENTRICITY": 0.0011478, "INCLINATION": 97.7929, "RA_OF_ASC_NODE": 41.9368, "ARG_OF_PERICENTER": 346.5588, "MEAN_ANOMALY": 13.5316, "EPHEMERIS_TYPE": 0, "CLASSIFICATION_TYPE": "U", "NORAD_CAT_ID": 32783, "ELEMENT_SET_NO": 999, "REV_AT_EPOCH": 95206, "BSTAR": 4.7832083e-05, "MEAN_MOTION_DOT": 3.03e-06, "MEAN_MOTION_DDOT": 0}, "tle": {"line1": "1 32783U 08021A   25352.28621520  .00000303  00000+0  47832-4 0  9990", "line2": "2 32783  97.7929  41.9368 0011478 346.5588  13.5316 14.78945684952066"}}, "geometry": {"type": "Point", "coordinates": [41.074466239360106, 10.497914836271411]}}, {"type": "Feature", "properties": {"norad_id": 33320, "name": "HUANJING 1A (HJ-1A)", "group": "resource", "lat": -25.277977665115127, "lon": -15.420335895399223, "alt_km": 613.625004175834, "timestamp": "2025-12-18T21:31:50.638759+00:00", "meta": {"OBJECT_NAME": "HUANJING 1A (HJ-1A)", "OBJECT_ID": "2008-041A", "EPOCH": "2025-12-18T07:04:30.689760", "MEAN_MOTION": 14.83412047, "ECCENTRICITY": 0.00198321, "INCLINATION": 97.6536, "RA_OF_ASC_NODE": 340.3617, "ARG_OF_PERICENTER": 16.8384, "MEAN_ANOMALY": 343.3484, "EPHEMERIS_TYPE": 0, "CLASSIFICATION_TYPE": "U", "NORAD_CAT_ID": 33320, "ELEMENT_SET_NO": 999, "REV_AT_EPOCH": 93158, "BSTAR": 0.00013597618, "MEAN_MOTION_DOT": 1.068e-05, "MEAN_MOTION_DDOT": 0}, "tle": {"line1": "1 33320U 08041A   25352.29479965  .00001068  00000+0  13598-3 0  9995", "line2": "2 33320  97.6536 340.3617 0019832  16.8384 343.3484 14.83412047931585"}}, "geometry": {"type": "Point", "coordinates": [-15.420335895399223, -25.277977665115127]}}, {"type": "Feature", "properties": {"norad_id": 33321, "name": "HUANJING 1B (HJ-1B)", "group": "resource", "lat": -3.5318163991634055, "lon": 164.14514243898915, "alt_km": 639.9915234725631, "timestamp": "2025-12-18T21:31:50.638769+00:00", "meta": {"OBJECT_NAME": "HUANJING 1B (HJ-1B)", "OBJECT_ID": "2008-041B", "EPOCH": "2025-12-18T06:08:00.999168", "MEAN_MOTION": 14.82834207, "ECCENTRICITY": 0.00380838, "INCLINATION": 97.6396, "RA_OF_ASC_NODE": 344.0067, "ARG_OF_PERICENTER": 58.1646, "MEAN_ANOMALY": 302.3267, "EPHEMERIS_TYPE": 0, "CLASSIFICATION_TYPE": "U", "NORAD_CAT_ID": 33321, "ELEMENT_SET_NO": 999, "REV_AT_EPOCH": 93159, "BSTAR": 8.7988988e-05, "MEAN_MOTION_DOT": 6.69e-06, "MEAN_MOTION_DDOT": 0}, "tle": {"line1": "1 33321U 08041B   25352.25556712  .00000669  00000+0  87989-4 0  9990", "line2": "2 33321  97.6396 344.0067 0038083  58.1646 302.3267 14.82834207931599"}}, "geometry": {"type": "Point", "coordinates": [164.14514243898915, -3.5318163991634055]}}, {"type": "Feature", "properties": {"norad_id": 33331, "name": "GEOEYE 1", "group": "resource", "lat": 50.00124523324412, "lon": -106.09678847978526, "alt_km": 674.7058820997745, "timestamp": "2025-12-18T21:31:50.638780+00:00", "meta": {"OBJECT_NAME": "GEOEYE 1", "OBJECT_ID": "2008-042A", "EPOCH": "2025-12-18T06:11:12.137568", "MEAN_MOTION": 14.64707865, "ECCENTRICITY": 0.00027801, "INCLINATION": 98.1248, "RA_OF_ASC_NODE": 63.4692, "ARG_OF_PERICENTER": 261.2165, "MEAN_ANOMALY": 98.8723, "EPHEMERIS_TYPE": 0, "CLASSIFICATION_TYPE": "U", "NORAD_CAT_ID": 33331, "ELEMENT_SET_NO": 999, "REV_AT_EPOCH": 92366, "BSTAR": 0.00010147396, "MEAN_MOTION_DOT": 4.93e-06, "MEAN_MOTION_DDOT": 0}, "tle": {"line1": "1 33331U 08042A   25352.25777937  .00000493  00000+0  10147-3 0  9992", "line2": "2 33331  98.1248  63.4692 0002780 261.2165  98.8723 14.64707865923668"}}, "geometry": {"type": "Point", "coordinates": [-106.09678847978526, 50.00124523324412]}}, {"type": "Feature", "properties": {"norad_id": 33396, "name": "THEOS", "group": "resource", "lat": 75.18114177733713, "lon": 15.97812884016539, "alt_km": 817.0445438414463, "timestamp": "2025-12-18T21:31:50.638791+00:00", "meta": {"OBJECT_NAME": "THEOS", "OBJECT_ID": "2008-049A", "EPOCH": "2025-12-18T07:38:15.175680", "MEAN_MOTION": 14.20096446, "ECCENTRICITY": 0.00011772, "INCLINATION": 98.5866, "RA_OF_ASC_NODE": 50.2435, "ARG_OF_PERICENTER": 95.348, "MEAN_ANOMALY": 264.7831, "EPHEMERIS_TYPE": 0, "CLASSIFICATION_TYPE": "U", "NORAD_CAT_ID": 33396, "ELEMENT_SET_NO": 999, "REV_AT_EPOCH": 89229, "BSTAR": -7.9009801e-05, "MEAN_MOTION_DOT": -2.11e-06, "MEAN_MOTION_DDOT": 0}, "tle": {"line1": "1 33396U 08049A   25352.31823120 -.00000211  00000+0 -79010-4 0  9998", "line2": "2 33396  98.5866  50.2435 0001177  95.3480 264.7831 14.20096446892299"}}, "geometry": {"type": "Point", "coordinates": [15.97812884016539, 75.18114177733713]}}, {"type": "Feature", "properties": {"norad_id": 33412, "name": "COSMO-SKYMED 3", "group": "resource", "lat": -71.38462785935221, "lon": -0.7780334282788839, "alt_km": 559.8128499960194, "timestamp": "2025-12-18T21:31:50.638802+00:00", "meta": {"OBJECT_NAME": "COSMO-SKYMED 3", "OBJECT_ID": "2008-054A", "EPOCH": "2025-12-18T07:38:57.421824", "MEAN_MOTION": 15.05407166, "ECCENTRICITY": 0.00166534, "INCLINATION": 97.8472, "RA_OF_ASC_NODE": 202.8042, "ARG_OF_PERICENTER": 153.5477, "MEAN_ANOMALY": 206.6602, "EPHEMERIS_TYPE": 0, "CLASSIFICATION_TYPE": "U", "NORAD_CAT_ID": 33412, "ELEMENT_SET_NO": 999, "REV_AT_EPOCH": 92971, "BSTAR": 0.00026159275, "MEAN_MOTION_DOT": 3.698e-05, "MEAN_MOTION_DDOT": 0}, "tle": {"line1": "1 33412U 08054A   25352.31872016  .00003698  00000+0  26159-3 0  9996", "line2": "2 33412  97.8472 202.8042 0016653 153.5477 206.6602 15.05407166929718"}}, "geometry": {"type": "Point", "coordinates": [-0.7780334282788839, -71.38462785935221]}}, {"type": "Feature", "properties": {"norad_id": 33446, "name": "YAOGAN-4", "group": "resource", "lat": 81.85139773986246, "lon": 179.3665449698913, "alt_km": 621.3758688930347, "timestamp": "2025-12-18T21:31:50.638812+00:00", "meta": {"OBJECT_NAME": "YAOGAN-4", "OBJECT_ID": "2008-061A", "EPOCH": "2025-12-18T06:32:26.388096", "MEAN_MOTION": 14.82698569, "ECCENTRICITY": 0.00132388, "INCLINATION": 97.9188, "RA_OF_ASC_NODE": 282.3175, "ARG_OF_PERICENTER": 303.9504, "MEAN_ANOMALY": 56.0451, "EPHEMERIS_TYPE": 0, "CLASSIFICATION_TYPE": "U", "NORAD_CAT_ID": 33446, "ELEMENT_SET_NO": 999, "REV_AT_EPOCH": 91885, "BSTAR": 0.0001445107, "MEAN_MOTION_DOT": 1.114e-05, "MEAN_MOTION_DDOT": 0}, "tle": {"line1": "1 33446U 08061A   25352.27252764  .00001114  00000+0  14451-3 0  9991", "line2": "2 33446  97.9188 282.3175 0013238 303.9504  56.0451 14.82698569918853"}}, "geometry": {"type": "Point", "coordinates": [179.3665449698913, 81.85139773986246]}}]}